SZ-21 MODULE            
1 66515U 25246C   25334.58331197  .00028552  00000+0  32510-3 0  9991
2 66515  41.4761  90.1544 0005495 186.9969 173.0795 15.61613857  2548
SHENZHOU-22             
1 66645U 25272A   25334.60566182  .00016368  00000+0  21219-3 0  9997
2 66645  41.4666  90.3296 0010499 300.6819  59.2984 15.58433763261994
CZ-2F R/B               
1 66646U 25272B   25330.47076975  .00449059  75676-5  29319-3 0  9998
2 66646  41.4431 114.9009 0121079 133.7676 227.3272 16.01945612   217
SOYUZ-MS 28             
1 66664U 25275A   25334.54411181  .00007982  00000+0  15180-3 0  9994
2 66664  51.6312 202.8529 0003690 187.0517 173.0420 15.49206888   551
SL-4 R/B                
1 66665U 25275B   25333.34681791  .08397088  12512-4  39285-3 0  9993
2 66665  51.6501 207.6669 0004581  68.9636 291.1882 16.43094745   331
